OBJECT_NAME,OBJECT_ID,EPOCH,MEAN_MOTION,ECCENTRICITY,INCLINATION,RA_OF_ASC_NODE,ARG_OF_PERICENTER,MEAN_ANOMALY,EPHEMERIS_TYPE,CLASSIFICATION_TYPE,NORAD_CAT_ID,ELEMENT_SET_NO,REV_AT_EPOCH,BSTAR,MEAN_MOTION_DOT,MEAN_MOTION_DDOT
SL-14 R/B,1990-018B,2026-04-24T03:20:25.431072,14.82183385,.0014918,82.5234,180.6234,305.2785,54.7033,0,U,20511,999,92931,.26627E-4,.236E-5,0
HST,1990-037B,2026-04-24T03:36:34.007040,15.30126545,.0001693,28.4743,89.7140,261.8757,98.1646,0,U,20580,999,78028,.16623E-3,.5216E-4,0
SL-16 R/B,1990-046B,2026-04-24T05:20:36.706848,14.15014958,.0016132,70.9992,202.2831,239.2960,120.6573,0,U,20625,999,85483,.28507E-4,.8E-7,0
COSMOS 2084,1990-055A,2026-04-24T05:05:04.795584,15.05895336,.0009942,62.7887,180.2839,209.1712,150.8834,0,U,20663,999,94317,.11393E-3,.1463E-4,0
SL-6 R/B(2),1990-055D,2026-04-24T02:59:20.032224,15.03787141,.003214,62.7807,99.3151,356.5849,3.5026,0,U,20666,999,94502,.12609E-3,.1554E-4,0
SL-8 R/B,1990-078B,2026-04-24T04:23:09.263040,14.90307949,.0356335,82.9050,210.3583,220.2928,137.1393,0,U,20775,999,81607,.50549E-3,.17241E-3,0
SL-8 R/B,1991-006B,2026-04-24T04:02:51.042048,13.77503818,.0020935,82.9401,136.2245,267.5907,159.9043,0,U,21088,999,77033,.14031E-3,.155E-5,0
OKEAN-3,1991-039A,2026-04-23T23:00:18.160128,15.05040835,.0014278,82.5131,292.9646,169.8625,190.2892,0,U,21397,999,87184,.1439E-3,.2075E-4,0
COSMOS 2151,1991-042A,2026-04-24T04:08:03.669216,15.00287606,.0010602,82.4986,39.7956,266.0626,93.9386,0,U,21422,999,87001,.91439E-4,.1173E-4,0
SL-14 R/B,1991-042B,2026-04-24T03:13:33.837024,14.81868871,.0018606,82.4948,177.5822,92.0395,268.2950,0,U,21423,999,85980,.26228E-4,.232E-5,0
ERS-1,1991-050A,2026-04-24T00:25:48.230112,14.39481692,.0033027,98.7837,133.3851,68.8139,291.6572,0,U,21574,999,82225,.80098E-4,.205E-5,0
ARIANE 40 R/B,1991-050F,2026-04-24T02:23:43.368864,14.42923775,.0001891,98.1925,164.6113,310.8203,49.2823,0,U,21610,999,82554,.63536E-4,.171E-5,0
INTERCOSMOS 25,1991-086A,2026-04-23T23:19:33.466368,12.12126509,.1485734,82.5991,282.6202,19.3427,345.8366,0,U,21819,999,50217,.90496E-4,.483E-5,0
SL-8 R/B,1992-008B,2026-04-23T13:52:33.636576,13.75970382,.00347357,82.9276,234.3847,11.5735,359.8536,0,U,21876,999,71559,.31548303E-4,.46E-6,0
SL-8 R/B,1992-020B,2026-04-24T03:45:34.432992,13.75548673,.0029285,82.9269,119.9929,168.0964,265.0385,0,U,21938,999,70738,-.56988E-4,-.4E-6,0
USA 81,1992-023A,2026-04-23T23:54:34.462080,14.32381781,.0001282,85.0035,105.2862,100.7424,259.3913,0,U,21949,999,10127,.44624E-4,.141E-5,0
COSMOS 2219,1992-076A,2026-04-23T22:26:12.742080,14.14094274,.001694,71.0592,283.4843,135.5391,224.7095,0,U,22219,999,72477,.21524E-3,.363E-5,0
SL-16 R/B,1992-076B,2026-04-24T03:59:06.279360,14.16865872,.0011968,70.9982,92.5778,15.3516,62.9490,0,U,22220,999,72827,-.89505E-4,-.228E-5,0
COSMOS 2221,1992-080A,2026-04-23T13:49:53.574528,14.96380019,.0015165,82.5043,236.0737,46.5379,313.7101,0,U,22236,999,78750,.1126115E-3,.1304E-4,0
SL-16 R/B,1992-093B,2026-04-23T21:32:31.452000,14.15456154,.0006179,71.0206,269.3595,247.5610,112.4859,0,U,22285,999,71955,.18653E-3,.317E-5,0
COSMOS 2228,1992-094A,2026-04-24T03:55:58.553760,14.97403875,.0018941,82.5204,193.7764,145.4246,214.8212,0,U,22286,999,78286,.12921E-3,.1534E-4,0
SL-16 R/B,1993-016B,2026-04-24T03:42:35.546112,14.15310308,.0012617,71.0038,119.6941,256.8551,103.1164,0,U,22566,999,70860,-.11791E-3,-.278E-5,0
COSMOS 2242,1993-024A,2026-04-23T13:32:39.687072,14.96734954,.00171162,82.5204,223.7874,150.4546,209.7647,0,U,22626,999,78710,.11824072E-3,.1381E-4,0
SL-16 R/B,1993-059B,2026-04-23T15:34:14.259360,14.17238093,.00159484,70.9891,276.3148,148.1613,212.0478,0,U,22803,999,68590,-.222635E-6,-.48E-6,0
ARIANE 40 R/B,1993-061H,2026-04-24T03:47:21.969888,14.32883595,.0011536,98.4846,182.1305,144.9089,215.2858,0,U,22830,999,70061,.68687E-4,.145E-5,0
COSMOS 2278,1994-023A,2026-04-24T03:26:57.523776,14.14386391,.0010398,71.0531,79.9964,309.9820,50.0389,0,U,23087,999,65123,.15154E-3,.243E-5,0
SL-16 R/B,1994-023B,2026-04-24T00:40:44.228352,14.15015471,.0005241,71.0002,335.6738,244.1957,115.8625,0,U,23088,999,65250,-.45414E-4,-.136E-5,0
SL-16 R/B,1994-074B,2026-04-24T02:37:52.151232,14.79454388,.0008056,97.7040,143.0735,77.1184,348.8262,0,U,23343,999,69396,.44362E-4,.282E-5,0
SL-16 R/B,1994-077B,2026-04-23T15:20:02.206752,14.15571583,.00005488,70.9824,257.9202,132.8081,227.3088,0,U,23405,999,62259,.11143502E-3,.17E-5,0
ARIANE 40+ R/B,1995-021B,2026-04-24T02:54:31.169376,14.39802201,.0006839,98.4432,184.9718,17.0255,11.7507,0,U,23561,999,62578,.69169E-4,.173E-5,0
SL-16 R/B,1995-058B,2026-04-24T03:25:33.484224,14.15505226,.0010872,71.0204,84.8252,41.8265,318.3687,0,U,23705,999,57428,-.30025E-4,-.106E-5,0
