SL-14 R/B               
1 20511U 90018B   26114.13918323  .00000236  00000+0  26627-4 0  9998
2 20511  82.5234 180.6234 0014918 305.2785  54.7033 14.82183385929311
HST                     
1 20580U 90037B   26114.15039360  .00005216  00000+0  16623-3 0  9999
2 20580  28.4743  89.7140 0001693 261.8757  98.1646 15.30126545780280
SL-16 R/B               
1 20625U 90046B   26114.22264707  .00000008  00000+0  28507-4 0  9991
2 20625  70.9992 202.2831 0016132 239.2960 120.6573 14.15014958854835
COSMOS 2084             
1 20663U 90055A   26114.21186106  .00001463  00000+0  11393-3 0  9998
2 20663  62.7887 180.2839 0009942 209.1712 150.8834 15.05895336943172
SL-6 R/B(2)             
1 20666U 90055D   26114.12453741  .00001554  00000+0  12609-3 0  9995
2 20666  62.7807  99.3151 0032140 356.5849   3.5026 15.03787141945023
SL-8 R/B                
1 20775U 90078B   26114.18274610  .00017241  00000+0  50549-3 0  9998
2 20775  82.9050 210.3583 0356335 220.2928 137.1393 14.90307949816074
SL-8 R/B                
1 21088U 91006B   26114.16864632  .00000155  00000+0  14031-3 0  9997
2 21088  82.9401 136.2245 0020935 267.5907 159.9043 13.77503818770337
OKEAN-3                 
1 21397U 91039A   26113.95854352  .00002075  00000+0  14390-3 0  9991
2 21397  82.5131 292.9646 0014278 169.8625 190.2892 15.05040835871841
COSMOS 2151             
1 21422U 91042A   26114.17226469  .00001173  00000+0  91439-4 0  9999
2 21422  82.4986  39.7956 0010602 266.0626  93.9386 15.00287606870015
SL-14 R/B               
1 21423U 91042B   26114.13441941  .00000232  00000+0  26228-4 0  9999
2 21423  82.4948 177.5822 0018606  92.0395 268.2950 14.81868871859804
ERS-1                   
1 21574U 91050A   26114.01791933  .00000205  00000+0  80098-4 0  9996
2 21574  98.7837 133.3851 0033027  68.8139 291.6572 14.39481692822255
ARIANE 40 R/B           
1 21610U 91050F   26114.09980751  .00000171  00000+0  63536-4 0  9993
2 21610  98.1925 164.6113 0001891 310.8203  49.2823 14.42923775825540
INTERCOSMOS 25          
1 21819U 91086A   26113.97191512  .00000483  00000+0  90496-4 0  9999
2 21819  82.5991 282.6202 1485734  19.3427 345.8366 12.12126509502176
SL-8 R/B                
1 21876U 92008B   26113.57816709  .00000046  00000+0  31548-4 0  9993
2 21876  82.9276 234.3847 0034735  11.5735 359.8536 13.75970382715596
SL-8 R/B                
1 21938U 92020B   26114.15664853 -.00000040  00000+0 -56988-4 0  9993
2 21938  82.9269 119.9929 0029285 168.0964 265.0385 13.75548673707384
USA 81                  
1 21949U 92023A   26113.99623220  .00000141  00000+0  44624-4 0  9996
2 21949  85.0035 105.2862 0001282 100.7424 259.3913 14.32381781101274
COSMOS 2219             
1 22219U 92076A   26113.93486970  .00000363  00000+0  21524-3 0  9997
2 22219  71.0592 283.4843 0016940 135.5391 224.7095 14.14094274724773
SL-16 R/B               
1 22220U 92076B   26114.16604490 -.00000228  00000+0 -89505-4 0  9990
2 22220  70.9982  92.5778 0011968  15.3516  62.9490 14.16865872728273
COSMOS 2221             
1 22236U 92080A   26113.57631452  .00001304  00000+0  11261-3 0  9991
2 22236  82.5043 236.0737 0015165  46.5379 313.7101 14.96380019787503
SL-16 R/B               
1 22285U 92093B   26113.89758625  .00000317  00000+0  18653-3 0  9991
2 22285  71.0206 269.3595 0006179 247.5610 112.4859 14.15456154719557
COSMOS 2228             
1 22286U 92094A   26114.16387215  .00001534  00000+0  12921-3 0  9991
2 22286  82.5204 193.7764 0018941 145.4246 214.8212 14.97403875782868
SL-16 R/B               
1 22566U 93016B   26114.15457808 -.00000278  00000+0 -11791-3 0  9992
2 22566  71.0038 119.6941 0012617 256.8551 103.1164 14.15310308708605
COSMOS 2242             
1 22626U 93024A   26113.56434823  .00001381  00000+0  11824-3 0  9995
2 22626  82.5204 223.7874 0017116 150.4546 209.7647 14.96734954787105
SL-16 R/B               
1 22803U 93059B   26113.64877615 -.00000048  00000+0 -22264-6 0  9993
2 22803  70.9891 276.3148 0015948 148.1613 212.0478 14.17238093685903
ARIANE 40 R/B           
1 22830U 93061H   26114.15789317  .00000145  00000+0  68687-4 0  9997
2 22830  98.4846 182.1305 0011536 144.9089 215.2858 14.32883595700610
COSMOS 2278             
1 23087U 94023A   26114.14372134  .00000243  00000+0  15154-3 0  9994
2 23087  71.0531  79.9964 0010398 309.9820  50.0389 14.14386391651237
SL-16 R/B               
1 23088U 94023B   26114.02828968 -.00000136  00000+0 -45414-4 0  9999
2 23088  71.0002 335.6738 0005241 244.1957 115.8625 14.15015471652507
SL-16 R/B               
1 23343U 94074B   26114.10963138  .00000282  00000+0  44362-4 0  9998
2 23343  97.7040 143.0735 0008056  77.1184 348.8262 14.79454388693963
SL-16 R/B               
1 23405U 94077B   26113.63891443  .00000170  00000+0  11144-3 0  9993
2 23405  70.9824 257.9202 0000548 132.8081 227.3088 14.15571583622597
ARIANE 40+ R/B          
1 23561U 95021B   26114.12119409  .00000173  00000+0  69169-4 0  9990
2 23561  98.4432 184.9718 0006839  17.0255  11.7507 14.39802201625782
SL-16 R/B               
1 23705U 95058B   26114.14274866 -.00000106  00000+0 -30025-4 0  9998
2 23705  71.0204  84.8252 0010872  41.8265 318.3687 14.15505226574289
